******** Week 377 almanac for PRN-17 ********
ID:                         17
Health:                     000
Eccentricity:               0.1259422302E-001
Time of Applicability(s):  503808.0000
Orbital Inclination(rad):   0.9578655409
Rate of Right Ascen(r/s):  -0.7851755629E-008
SQRT(A)  (m 1/2):           5153.611328
Right Ascen at Week(rad):  -0.6147046010E-001
Argument of Perigee(rad):  -1.102049099
Mean Anom(rad):             0.1438560142E+001
Af0(s):                    -0.1668930054E-003
Af1(s/s):                  -0.7275957614E-011
week:                        377

******** Week 377 almanac for PRN-18 ********
ID:                         18
Health:                     000
Eccentricity:               0.6211280823E-002
Time of Applicability(s):  503808.0000
Orbital Inclination(rad):   0.9709103697
Rate of Right Ascen(r/s):  -0.7680319916E-008
SQRT(A)  (m 1/2):           5153.580566
Right Ascen at Week(rad):   0.9500453098E+000
Argument of Perigee(rad):  -2.866185803
Mean Anom(rad):            -0.5305592384E+000
Af0(s):                    -0.3128051758E-003
Af1(s/s):                   0.7275957614E-011
week:                        377

******** Week 377 almanac for PRN-19 ********
ID:                         19
Health:                     000
Eccentricity:               0.1172113419E-001
Time of Applicability(s):  503808.0000
Orbital Inclination(rad):   0.9570266451
Rate of Right Ascen(r/s):  -0.7817468486E-008
SQRT(A)  (m 1/2):           5153.701172
Right Ascen at Week(rad):  -0.1770407075E-001
Argument of Perigee(rad):   3.015527596
Mean Anom(rad):             0.3093073396E+001
Af0(s):                     0.7028579712E-003
Af1(s/s):                   0.0000000000E+000
week:                        377

******** Week 377 almanac for PRN-20 ********
ID:                         20
Health:                     000
Eccentricity:               0.1948833466E-002
Time of Applicability(s):  503808.0000
Orbital Inclination(rad):   0.9620120827
Rate of Right Ascen(r/s):  -0.7988904198E-008
SQRT(A)  (m 1/2):           5153.563965
Right Ascen at Week(rad):   0.3003197326E+001
Argument of Perigee(rad):  -1.783045938
Mean Anom(rad):            -0.2222223589E+001
Af0(s):                     0.2183914185E-003
Af1(s/s):                   0.1455191523E-010
week:                        377

******** Week 377 almanac for PRN-21 ********
ID:                         21
Health:                     000
Eccentricity:               0.7877349854E-003
Time of Applicability(s):  503808.0000
Orbital Inclination(rad):   0.9639954719
Rate of Right Ascen(r/s):  -0.8171768958E-008
SQRT(A)  (m 1/2):           5153.528320
Right Ascen at Week(rad):   0.1997382302E+001
Argument of Perigee(rad):  -0.071089299
Mean Anom(rad):            -0.2544806341E+001
Af0(s):                     0.4034042358E-003
Af1(s/s):                  -0.3637978807E-011
week:                        377

******** Week 377 almanac for PRN-22 ********
ID:                         22
Health:                     000
Eccentricity:               0.1187086105E-001
Time of Applicability(s):  503808.0000
Orbital Inclination(rad):   0.9568948186
Rate of Right Ascen(r/s):  -0.8011762293E-008
SQRT(A)  (m 1/2):           5153.659180
Right Ascen at Week(rad):  -0.1073691427E+001
Argument of Perigee(rad):  -0.991578139
Mean Anom(rad):             0.2057516521E+001
Af0(s):                     0.2861022949E-004
Af1(s/s):                   0.7275957614E-011
week:                        377

******** Week 377 almanac for PRN-23 ********
ID:                         23
Health:                     000
Eccentricity:               0.6363868713E-002
Time of Applicability(s):  503808.0000
Orbital Inclination(rad):   0.9890125414
Rate of Right Ascen(r/s):  -0.7908900866E-008
SQRT(A)  (m 1/2):           5153.678223
Right Ascen at Week(rad):   0.1959605778E+001
Argument of Perigee(rad):  -2.745031281
Mean Anom(rad):            -0.1740257012E+001
Af0(s):                     0.6656646729E-003
Af1(s/s):                   0.3637978807E-011
week:                        377

******** Week 377 almanac for PRN-24 ********
ID:                         24
Health:                     000
Eccentricity:               0.1830673218E-001
Time of Applicability(s):  503808.0000
Orbital Inclination(rad):   0.9352812690
Rate of Right Ascen(r/s):  -0.7874613724E-008
SQRT(A)  (m 1/2):           5153.582520
Right Ascen at Week(rad):  -0.2323444600E+001
Argument of Perigee(rad):   1.157360791
Mean Anom(rad):            -0.3422795750E+000
Af0(s):                     0.9346008301E-004
Af1(s/s):                   0.1818989404E-010
week:                        377

******** Week 377 almanac for PRN-25 ********
ID:                         25
Health:                     000
Eccentricity:               0.1287078857E-001
Time of Applicability(s):  503808.0000
Orbital Inclination(rad):   0.9467082275
Rate of Right Ascen(r/s):  -0.8103194673E-008
SQRT(A)  (m 1/2):           5153.609863
Right Ascen at Week(rad):  -0.1189090899E+001
Argument of Perigee(rad):   1.161996813
Mean Anom(rad):            -0.2158253669E+001
Af0(s):                     0.4100799561E-003
Af1(s/s):                  -0.3637978807E-011
week:                        377

******** Week 377 almanac for PRN-26 ********
ID:                         26
Health:                     000
Eccentricity:               0.1114654541E-001
Time of Applicability(s):  503808.0000
Orbital Inclination(rad):   0.9274435859
Rate of Right Ascen(r/s):  -0.8274630386E-008
SQRT(A)  (m 1/2):           5153.713379
Right Ascen at Week(rad):  -0.1265956594E+001
Argument of Perigee(rad):   0.719267338
Mean Anom(rad):            -0.3024921730E+001
Af0(s):                    -0.3805160522E-003
Af1(s/s):                  -0.3637978807E-011
week:                        377

******** Week 377 almanac for PRN-27 ********
ID:                         27
Health:                     000
Eccentricity:               0.1432085037E-001
Time of Applicability(s):  503808.0000
Orbital Inclination(rad):   0.9513161619
Rate of Right Ascen(r/s):  -0.7943188009E-008
SQRT(A)  (m 1/2):           5153.617188
Right Ascen at Week(rad):  -0.1349116629E+000
Argument of Perigee(rad):   0.900455711
Mean Anom(rad):             0.1574268381E+001
Af0(s):                     0.9536743164E-006
Af1(s/s):                   0.0000000000E+000
week:                        377

******** Week 377 almanac for PRN-28 ********
ID:                         28
Health:                     000
Eccentricity:               0.5049705505E-003
Time of Applicability(s):  503808.0000
Orbital Inclination(rad):   0.9620180748
Rate of Right Ascen(r/s):  -0.7668890869E-008
SQRT(A)  (m 1/2):           5153.567871
Right Ascen at Week(rad):  -0.2237088147E+001
Argument of Perigee(rad):  -0.377189622
Mean Anom(rad):            -0.5851979413E+000
Af0(s):                    -0.4825592041E-003
Af1(s/s):                   0.1091393642E-010
week:                        377

******** Week 377 almanac for PRN-29 ********
ID:                         29
Health:                     000
Eccentricity:               0.3656864166E-002
Time of Applicability(s):  503808.0000
Orbital Inclination(rad):   0.9605559993
Rate of Right Ascen(r/s):  -0.7840326581E-008
SQRT(A)  (m 1/2):           5153.642578
Right Ascen at Week(rad):  -0.4441466102E-001
Argument of Perigee(rad):   2.850563242
Mean Anom(rad):             0.1295916033E+001
Af0(s):                    -0.2889633179E-003
Af1(s/s):                   0.7275957614E-011
week:                        377

******** Week 377 almanac for PRN-30 ********
ID:                         30
Health:                     000
Eccentricity:               0.8236408234E-002
Time of Applicability(s):  503808.0000
Orbital Inclination(rad):   0.9363898098
Rate of Right Ascen(r/s):  -0.7931758961E-008
SQRT(A)  (m 1/2):           5153.641113
Right Ascen at Week(rad):  -0.2223559830E+001
Argument of Perigee(rad):  -2.261400769
Mean Anom(rad):            -0.1604468254E+001
Af0(s):                     0.2822875977E-003
Af1(s/s):                   0.1455191523E-010
week:                        377

******** Week 377 almanac for PRN-31 ********
ID:                         31
Health:                     000
Eccentricity:               0.1086044312E-001
Time of Applicability(s):  503808.0000
Orbital Inclination(rad):   0.9547855951
Rate of Right Ascen(r/s):  -0.7714607059E-008
SQRT(A)  (m 1/2):           5153.579102
Right Ascen at Week(rad):  -0.2187992149E+001
Argument of Perigee(rad):   0.969064649
Mean Anom(rad):            -0.2398129166E+001
Af0(s):                    -0.1382827759E-003
Af1(s/s):                   0.3637978807E-011
week:                        377

******** Week 377 almanac for PRN-32 ********
ID:                         32
Health:                     000
Eccentricity:               0.9398460388E-002
Time of Applicability(s):  503808.0000
Orbital Inclination(rad):   0.9696160734
Rate of Right Ascen(r/s):  -0.7886042771E-008
SQRT(A)  (m 1/2):           5153.736328
Right Ascen at Week(rad):   0.3015629087E+001
Argument of Perigee(rad):  -1.978962549
Mean Anom(rad):             0.2070460608E+001
Af0(s):                     0.1440048218E-003
Af1(s/s):                   0.2182787284E-010
week:                        377

